      2.10          N: GNSS NAV DATA                        RINEX VERSION / TYPE
fic2rin                                 09/15/2022 00:17:30 PGM / RUN BY / DATE
                                                            END OF HEADER
30 22  9 14 23 59 28.0 -.536955427378D-03 -.227373675443D-12  .000000000000D+00
     .340000000000D+02  .346250000000D+02  .513271379813D-08  .149567672398D+01
     .188499689102D-05  .595369911753D-02  .105518847704D-04  .515371640396D+04
     .345568000000D+06  .745058059692D-08 -.252608346371D+01  .139698386192D-06
     .936049259466D+00  .164656250000D+03 -.265583549350D+01 -.827677333226D-08
    -.171078554680D-09  .100000000000D+01  .222700000000D+04  .000000000000D+00
     .240000000000D+01  .000000000000D+00  .372529029846D-08  .340000000000D+02
     .340380000000D+06  .400000000000D+01
32 22  9 14 23 59 44.0 -.233470462263D-03 -.112549969344D-10  .000000000000D+00
     .130000000000D+02 -.320000000000D+02  .490484716371D-08 -.109197336475D+01
    -.150874257088D-05  .609714584425D-02  .650994479656D-05  .515364068222D+04
     .345584000000D+06  .987201929092D-07  .268796856079D+01  .949949026108D-07
     .958853375703D+00  .251718750000D+03 -.229118795521D+01 -.820534178542D-08
    -.903609067516D-10  .100000000000D+01  .222700000000D+04  .000000000000D+00
     .240000000000D+01  .000000000000D+00  .465661287308D-09  .130000000000D+02
     .340650000000D+06  .400000000000D+01
20 22  9 14 23 59 44.0  .486377160996D-03 -.306954461848D-11  .000000000000D+00
     .140000000000D+02  .103125000000D+02  .479555689705D-08 -.294522911847D+01
     .618398189545D-06  .476784189232D-02  .819191336632D-05  .515365061951D+04
     .345584000000D+06 -.521540641785D-07  .148764948621D+01  .000000000000D+00
     .944434463052D+00  .210906250000D+03 -.309846997452D+01 -.816426864599D-08
     .535379443560D-09  .100000000000D+01  .222700000000D+04  .000000000000D+00
     .240000000000D+01  .000000000000D+00 -.838190317154D-08  .140000000000D+02
     .342690000000D+06  .400000000000D+01
29 22  9 14 23 59 44.0 -.551601406187D-03 -.318323145621D-11  .000000000000D+00
     .110000000000D+02 -.431875000000D+02  .426124892669D-08 -.189389130527D+01
    -.232458114624D-05  .222642184235D-02  .433437526226D-05  .515364809036D+04
     .345584000000D+06 -.651925802231D-07 -.369840917953D+00  .372529029846D-07
     .979776376785D+00  .305437500000D+03  .245416220066D+01 -.816176854185D-08
    -.332871008271D-09  .100000000000D+01  .222700000000D+04  .000000000000D+00
     .240000000000D+01  .000000000000D+00 -.102445483208D-07  .110000000000D+02
     .344250000000D+06  .400000000000D+01
